{
    "links": {
        "self": "http://www.neowsapp.com/rest/v1/neo/54053915?api_key=iIulBulltgU6a56xZRHN4H3l9WmuAYTsLGpBGhQ2"
    },
    "id": "54053915",
    "neo_reference_id": "54053915",
    "name": "(2020 RE3)",
    "designation": "2020 RE3",
    "nasa_jpl_url": "http://ssd.jpl.nasa.gov/sbdb.cgi?sstr=54053915",
    "absolute_magnitude_h": 24.072,
    "estimated_diameter": {
        "kilometers": {
            "estimated_diameter_min": 0.0407525676,
            "estimated_diameter_max": 0.0911255114
        },
        "meters": {
            "estimated_diameter_min": 40.7525676103,
            "estimated_diameter_max": 91.1255114344
        },
        "miles": {
            "estimated_diameter_min": 0.0253224637,
            "estimated_diameter_max": 0.0566227502
        },
        "feet": {
            "estimated_diameter_min": 133.7026539187,
            "estimated_diameter_max": 298.9682229344
        }
    },
    "is_potentially_hazardous_asteroid": false,
    "close_approach_data": [
        {
            "close_approach_date": "2020-09-13",
            "close_approach_date_full": "2020-Sep-13 14:16",
            "epoch_date_close_approach": 1600006560000,
            "relative_velocity": {
                "kilometers_per_second": "5.3200840059",
                "kilometers_per_hour": "19152.3024214032",
                "miles_per_hour": "11900.4959128991"
            },
            "miss_distance": {
                "astronomical": "0.179893797",
                "lunar": "69.978687033",
                "kilometers": "26911728.85741239",
                "miles": "16722172.894535382"
            },
            "orbiting_body": "Earth"
        },
        {
            "close_approach_date": "2037-09-14",
            "close_approach_date_full": "2037-Sep-14 08:04",
            "epoch_date_close_approach": 2136528240000,
            "relative_velocity": {
                "kilometers_per_second": "5.282193127",
                "kilometers_per_hour": "19015.8952571299",
                "miles_per_hour": "11815.7378057428"
            },
            "miss_distance": {
                "astronomical": "0.1852152793",
                "lunar": "72.0487436477",
                "kilometers": "27707811.274735091",
                "miles": "17216835.5708466158"
            },
            "orbiting_body": "Earth"
        }
    ],
    "orbital_data": {
        "orbit_id": "7",
        "orbit_determination_date": "2020-10-10 07:03:50",
        "first_observation_date": "2020-09-10",
        "last_observation_date": "2020-10-09",
        "data_arc_in_days": 29,
        "observations_used": 49,
        "orbit_uncertainty": "7",
        "minimum_orbit_intersection": ".179192",
        "jupiter_tisserand_invariant": "3.451",
        "epoch_osculation": "2459000.5",
        "eccentricity": ".4763608586557752",
        "semi_major_axis": "2.261329903197232",
        "inclination": "7.085043498651901",
        "ascending_node_longitude": "175.6500964071698",
        "orbital_period": "1242.064975664039",
        "perihelion_distance": "1.184120848806217",
        "perihelion_argument": "176.8157351756186",
        "aphelion_distance": "3.338538957588246",
        "perihelion_time": "2459106.364819997946",
        "mean_anomaly": "329.3161501644589",
        "mean_motion": ".2898399093876188",
        "equinox": "J2000",
        "orbit_class": {
            "orbit_class_type": "AMO",
            "orbit_class_description": "Near-Earth asteroid orbits similar to that of 1221 Amor",
            "orbit_class_range": "1.017 AU < q (perihelion) < 1.3 AU"
        }
    },
    "is_sentry_object": false
}